[{"OBJECT_NAME":"STARLINK-32349","OBJECT_ID":"2024-195P","EPOCH":"2026-03-09T17:03:09.544032","MEAN_MOTION":15.30193192,"ECCENTRICITY":0.00014177,"INCLINATION":53.1581,"RA_OF_ASC_NODE":155.333,"ARG_OF_PERICENTER":83.2634,"MEAN_ANOMALY":276.8528,"EPHEMERIS_TYPE":0,"CLASSIFICATION_TYPE":"U","NORAD_CAT_ID":61700,"ELEMENT_SET_NO":999,"REV_AT_EPOCH":7718,"BSTAR":0.00021108559,"MEAN_MOTION_DOT":5.896e-5,"MEAN_MOTION_DDOT":0},{"OBJECT_NAME":"HERMES-3","OBJECT_ID":"2025-052BR","EPOCH":"2026-03-09T22:30:01.073952","MEAN_MOTION":15.30039786,"ECCENTRICITY":0.00079928,"INCLINATION":97.3987,"RA_OF_ASC_NODE":324.6131,"ARG_OF_PERICENTER":112.9583,"MEAN_ANOMALY":247.2502,"EPHEMERIS_TYPE":0,"CLASSIFICATION_TYPE":"U","NORAD_CAT_ID":63835,"ELEMENT_SET_NO":999,"REV_AT_EPOCH":5486,"BSTAR":0.0006995793,"MEAN_MOTION_DOT":0.00020316,"MEAN_MOTION_DDOT":0}]
